{
    "links": {
        "self": "http://www.neowsapp.com/rest/v1/neo/3835957?api_key=iIulBulltgU6a56xZRHN4H3l9WmuAYTsLGpBGhQ2"
    },
    "id": "3835957",
    "neo_reference_id": "3835957",
    "name": "(2018 VA1)",
    "designation": "2018 VA1",
    "nasa_jpl_url": "http://ssd.jpl.nasa.gov/sbdb.cgi?sstr=3835957",
    "absolute_magnitude_h": 26.9,
    "estimated_diameter": {
        "kilometers": {
            "estimated_diameter_min": 0.0110803882,
            "estimated_diameter_max": 0.0247765013
        },
        "meters": {
            "estimated_diameter_min": 11.0803882126,
            "estimated_diameter_max": 24.7765012606
        },
        "miles": {
            "estimated_diameter_min": 0.0068850319,
            "estimated_diameter_max": 0.0153953994
        },
        "feet": {
            "estimated_diameter_min": 36.3529808636,
            "estimated_diameter_max": 81.2877363957
        }
    },
    "is_potentially_hazardous_asteroid": false,
    "close_approach_data": [
        {
            "close_approach_date": "2010-10-05",
            "close_approach_date_full": "2010-Oct-05 16:24",
            "epoch_date_close_approach": 1286295840000,
            "relative_velocity": {
                "kilometers_per_second": "15.2941714634",
                "kilometers_per_hour": "55059.0172682108",
                "miles_per_hour": "34211.5321464613"
            },
            "miss_distance": {
                "astronomical": "0.3598266986",
                "lunar": "139.9725857554",
                "kilometers": "53829307.679691982",
                "miles": "33447980.7886820716"
            },
            "orbiting_body": "Earth"
        },
        {
            "close_approach_date": "2018-11-04",
            "close_approach_date_full": "2018-Nov-04 08:45",
            "epoch_date_close_approach": 1541321100000,
            "relative_velocity": {
                "kilometers_per_second": "7.810988131",
                "kilometers_per_hour": "28119.5572714928",
                "miles_per_hour": "17472.3993501673"
            },
            "miss_distance": {
                "astronomical": "0.019568374",
                "lunar": "7.612097486",
                "kilometers": "2927387.06976338",
                "miles": "1818993.977279444"
            },
            "orbiting_body": "Earth"
        },
        {
            "close_approach_date": "2027-06-24",
            "close_approach_date_full": "2027-Jun-24 17:48",
            "epoch_date_close_approach": 1813859280000,
            "relative_velocity": {
                "kilometers_per_second": "8.020767714",
                "kilometers_per_hour": "28874.7637704989",
                "miles_per_hour": "17941.655299508"
            },
            "miss_distance": {
                "astronomical": "0.0958843256",
                "lunar": "37.2990026584",
                "kilometers": "14344090.876146472",
                "miles": "8913004.7689144336"
            },
            "orbiting_body": "Mars"
        },
        {
            "close_approach_date": "2092-12-31",
            "close_approach_date_full": "2092-Dec-31 12:55",
            "epoch_date_close_approach": 3881566500000,
            "relative_velocity": {
                "kilometers_per_second": "16.276153893",
                "kilometers_per_hour": "58594.1540149588",
                "miles_per_hour": "36408.1286433503"
            },
            "miss_distance": {
                "astronomical": "0.4507399912",
                "lunar": "175.3378565768",
                "kilometers": "67429742.607338744",
                "miles": "41898899.1784289072"
            },
            "orbiting_body": "Earth"
        }
    ],
    "orbital_data": {
        "orbit_id": "3",
        "orbit_determination_date": "2018-11-09 06:25:53",
        "first_observation_date": "2018-11-02",
        "last_observation_date": "2018-11-09",
        "data_arc_in_days": 7,
        "observations_used": 20,
        "orbit_uncertainty": "7",
        "minimum_orbit_intersection": ".0197902",
        "jupiter_tisserand_invariant": "4.755",
        "epoch_osculation": "2459000.5",
        "eccentricity": ".2717739562452182",
        "semi_major_axis": "1.372989223912404",
        "inclination": "12.40119327905433",
        "ascending_node_longitude": "41.03329627314871",
        "orbital_period": "587.6234515941852",
        "perihelion_distance": ".9998465106476784",
        "perihelion_argument": "19.12392126981862",
        "aphelion_distance": "1.74613193717713",
        "perihelion_time": "2459031.039027504710",
        "mean_anomaly": "341.2906549732324",
        "mean_motion": ".6126372237584167",
        "equinox": "J2000",
        "orbit_class": {
            "orbit_class_type": "APO",
            "orbit_class_description": "Near-Earth asteroid orbits which cross the Earth’s orbit similar to that of 1862 Apollo",
            "orbit_class_range": "a (semi-major axis) > 1.0 AU; q (perihelion) < 1.017 AU"
        }
    },
    "is_sentry_object": false
}